[{"OBJECT_NAME":"STARLINK-6030","OBJECT_ID":"2023-046Q","EPOCH":"2026-03-08T14:54:09.315360","MEAN_MOTION":15.0253491,"ECCENTRICITY":0.00011807,"INCLINATION":43.0021,"RA_OF_ASC_NODE":164.5463,"ARG_OF_PERICENTER":256.1191,"MEAN_ANOMALY":103.952,"EPHEMERIS_TYPE":0,"CLASSIFICATION_TYPE":"U","NORAD_CAT_ID":56107,"ELEMENT_SET_NO":999,"REV_AT_EPOCH":16190,"BSTAR":3.118355e-6,"MEAN_MOTION_DOT":-1.61e-6,"MEAN_MOTION_DDOT":0},{"OBJECT_NAME":"PSLV R\/B","OBJECT_ID":"2018-071C","EPOCH":"2026-03-09T22:40:07.416192","MEAN_MOTION":15.00058604,"ECCENTRICITY":0.00237177,"INCLINATION":97.444,"RA_OF_ASC_NODE":249.6196,"ARG_OF_PERICENTER":104.8167,"MEAN_ANOMALY":255.5687,"EPHEMERIS_TYPE":0,"CLASSIFICATION_TYPE":"U","NORAD_CAT_ID":43620,"ELEMENT_SET_NO":999,"REV_AT_EPOCH":40754,"BSTAR":0.00020356401,"MEAN_MOTION_DOT":2.493e-5,"MEAN_MOTION_DDOT":0}]
